{"fetched_at":"2026-03-29T02:12:04Z","count":15717,"tles":[{"name":"STARLINK-31903","line1":"1 59845U 24097L   26087.56020864 -.00004188  00000+0 -14271-3 0  9997","line2":"2 59845  42.9979 160.7891 0001345 277.5664  82.5035 15.27587663104889","category":"Starlink"}]}